     4.02           N: GNSS NAV DATA    M: Mixed            RINEX VERSION / TYPE
BNC 2.13.4          user                20260406 200002 UTC PGM / RUN BY / DATE
Source: RTCM_3.3 products.igs-ip.net/BCEP00BKG0             COMMENT
    18                                                      LEAP SECONDS
                                                            END OF HEADER
> EPH G15 LNAV
G15 2026 04 06 22 00 00 4.008417017758e-04 3.296918293927e-12 0.000000000000e+00
     8.300000000000e+01-1.500000000000e+01 4.863059708814e-09-1.593228738955e+00
    -6.072223186493e-07 1.663471851498e-02 7.959082722664e-06 5.153711755753e+03
     1.656000000000e+05 1.210719347000e-07-1.924268053100e+00 4.246830940247e-07
     9.429081494177e-01 2.155625000000e+02 1.508088232145e+00-8.084979628997e-09
     2.164375869228e-10 1.000000000000e+00 2.413000000000e+03 0.000000000000e+00
     2.000000000000e+00 0.000000000000e+00-1.117587089539e-08 8.300000000000e+01
     9.999000000000e+08                                                         
> EPH G16 LNAV
G16 2026 04 06 22 00 00 2.401540987194e-04 7.162270776462e-12 0.000000000000e+00
     3.000000000000e+01 4.406250000000e+01 4.342323732356e-09 4.446334225268e-01
     2.410262823105e-06 1.501288171858e-02 9.756535291672e-06 5.153666934967e+03
     1.656000000000e+05-1.937150955200e-07 4.284997094871e-01 1.639127731323e-07
     9.585320867089e-01 1.930000000000e+02 9.317762425291e-01-7.983189674751e-09
    -2.964409193828e-10 1.000000000000e+00 2.413000000000e+03 0.000000000000e+00
     2.000000000000e+00 0.000000000000e+00-1.071020960808e-08 3.000000000000e+01
     9.999000000000e+08                                                         
> EPH G17 LNAV
G17 2026 04 06 22 00 00-1.065884716809e-04-9.208633855451e-12 0.000000000000e+00
     7.600000000000e+01 9.743750000000e+01 4.627335604244e-09-6.424160086682e-01
     4.824250936508e-06 1.261695486028e-02 5.956739187241e-06 5.153617002487e+03
     1.656000000000e+05-1.862645149231e-07 1.445303492292e+00-4.656612873077e-08
     9.585394671306e-01 2.672187500000e+02-1.115113516200e+00-8.358205295657e-09
     2.885834492304e-10 1.000000000000e+00 2.413000000000e+03 0.000000000000e+00
     2.000000000000e+00 0.000000000000e+00-1.117587089539e-08 7.600000000000e+01
     9.999000000000e+08                                                         
> EPH G19 LNAV
G19 2026 04 06 22 00 00 6.962567567825e-04 1.250555214938e-12 0.000000000000e+00
     9.500000000000e+01 9.659375000000e+01 4.614835083548e-09 1.132720567684e+00
     4.995614290237e-06 1.128034514841e-02 5.027279257774e-06 5.153733268738e+03
     1.656000000000e+05 1.080334186554e-07 1.489186293352e+00 1.788139343262e-07
     9.576922781046e-01 2.799687500000e+02 2.947693083592e+00-8.163911488254e-09
     8.071764792832e-11 1.000000000000e+00 2.413000000000e+03 0.000000000000e+00
     2.000000000000e+00 0.000000000000e+00-1.536682248116e-08 9.500000000000e+01
     9.999000000000e+08                                                         
> EPH G20 LNAV
G20 2026 04 06 22 00 00 9.444262832403e-05 2.000888343900e-11 0.000000000000e+00
     1.310000000000e+02-1.821875000000e+01 4.514830917973e-09 2.109287025711e+00
    -1.164153218269e-06 2.232116763480e-03 7.472932338715e-06 5.153759899139e+03
     1.656000000000e+05 1.117587089539e-08-1.773907611058e+00-5.401670932770e-08
     9.602807887608e-01 2.330625000000e+02-1.936847232159e+00-7.926758752748e-09
     2.228664261384e-10 1.000000000000e+00 2.413000000000e+03 0.000000000000e+00
     2.000000000000e+00 0.000000000000e+00-8.847564458847e-09 6.430000000000e+02
     9.999000000000e+08                                                         
> EPH G21 LNAV
G21 2026 04 06 22 00 00 4.133768379688e-04 1.591615728103e-12 0.000000000000e+00
     6.400000000000e+01-7.537500000000e+01 4.425184326689e-09 1.783514658453e+00
    -3.688037395477e-06 8.204202167690e-04 7.526949048042e-06 5.153786577225e+03
     1.656000000000e+05 8.568167686462e-08-2.779387063507e+00-1.862645149231e-09
     9.634307351915e-01 2.345000000000e+02-2.181425144428e-01-7.984618305688e-09
    -1.750072897561e-11 1.000000000000e+00 2.413000000000e+03 0.000000000000e+00
     2.000000000000e+00 0.000000000000e+00-9.778887033463e-09 6.400000000000e+01
     9.999000000000e+08                                                         
> EPH G22 LNAV
G22 2026 04 06 22 00 00-2.268981188536e-05 5.911715561524e-12 0.000000000000e+00
     3.200000000000e+01 3.837500000000e+01 4.420184118411e-09 4.975931518949e-03
     1.952052116394e-06 1.203069323674e-02 9.767711162567e-06 5.153625240326e+03
     1.656000000000e+05-8.940696716309e-08 4.318564262222e-01-2.291053533554e-07
     9.579816081907e-01 1.904375000000e+02-9.926894727468e-01-8.037477650349e-09
    -2.314382117591e-10 1.000000000000e+00 2.413000000000e+03 0.000000000000e+00
     2.000000000000e+00 0.000000000000e+00-1.117587089539e-08 3.200000000000e+01
     9.999000000000e+08                                                         
> EPH G23 LNAV
G23 2026 04 06 22 00 00 6.331074982882e-04 4.433786671143e-12 0.000000000000e+00
     8.500000000000e+01-7.806250000000e+01 3.771585673111e-09 2.500097582574e+00
    -4.079192876816e-06 6.093996460550e-03 8.378177881241e-06 5.153710975647e+03
     1.656000000000e+05-1.490116119385e-07-2.819323041790e+00-4.656612873077e-08
     9.885395896247e-01 2.339062500000e+02-2.740314113265e+00-7.569601018552e-09
    -1.571494030463e-11 1.000000000000e+00 2.413000000000e+03 0.000000000000e+00
     2.000000000000e+00 0.000000000000e+00-8.847564458847e-09 8.500000000000e+01
     9.999000000000e+08                                                         
> EPH G24 LNAV
G24 2026 04 06 22 00 00-4.794728010893e-05 1.739408617141e-11 0.000000000000e+00
     2.300000000000e+01-1.771875000000e+01 5.146642949766e-09-2.427356355398e+00
    -8.642673492432e-07 1.797894388437e-02 5.761161446571e-06 5.153640398026e+03
     1.656000000000e+05 1.974403858185e-07-8.152163003454e-01-5.960464477539e-08
     9.349013822580e-01 2.523125000000e+02 1.140348304473e+00-8.007119242942e-09
     1.785788670980e-11 1.000000000000e+00 2.413000000000e+03 0.000000000000e+00
     2.000000000000e+00 0.000000000000e+00 2.328306436539e-09 2.300000000000e+01
     9.999000000000e+08                                                         
> EPH G25 LNAV
G25 2026 04 06 22 00 00 4.319320432842e-04-2.728484105319e-12 0.000000000000e+00
     1.000000000000e+01 2.828125000000e+01 4.505187659149e-09 2.064282109430e+00
     1.324340701103e-06 1.289216754958e-02 9.577721357346e-06 5.153713407516e+03
     1.656000000000e+05-2.421438694000e-08 3.174098257362e-01-2.812594175339e-07
     9.478074371956e-01 1.859375000000e+02 1.159309501688e+00-7.854255732706e-09
    -2.017941198208e-10 1.000000000000e+00 2.413000000000e+03 0.000000000000e+00
     2.000000000000e+00 0.000000000000e+00 5.587935447693e-09 1.000000000000e+01
     9.999000000000e+08                                                         
> EPH G26 LNAV
G26 2026 04 06 22 00 00-3.504375927150e-04-4.888534022029e-12 0.000000000000e+00
     2.600000000000e+01 2.412500000000e+01 5.078782980268e-09 1.241907737756e+00
     1.326203346252e-06 1.102644461207e-02 9.495764970779e-06 5.153738426208e+03
     1.656000000000e+05-9.499490261078e-08 2.422619403251e-01 6.891787052155e-08
     9.285735696050e-01 1.811562500000e+02 7.117305784583e-01-8.262844180626e-09
    -4.143029716675e-10 1.000000000000e+00 2.413000000000e+03 0.000000000000e+00
     2.000000000000e+00 0.000000000000e+00 6.519258022308e-09 2.600000000000e+01
     9.999000000000e+08                                                         
> EPH G28 LNAV
G28 2026 04 06 22 00 00-5.613686516881e-04 8.867573342286e-12 0.000000000000e+00
     1.650000000000e+02-1.800000000000e+01 4.705910305768e-09-2.777270475594e+00
    -9.741634130478e-07 3.822180442512e-04 6.219372153282e-06 5.153555139542e+03
     1.656000000000e+05 2.980232238770e-08-7.314306063578e-01 2.607703208923e-08
     9.618608982815e-01 2.619375000000e+02-3.157902891102e-01-8.031405968867e-09
    -1.764359206929e-10 1.000000000000e+00 2.413000000000e+03 0.000000000000e+00
     2.000000000000e+00 0.000000000000e+00-9.778887033463e-09 9.330000000000e+02
     9.999000000000e+08                                                         
> EPH G30 LNAV
G30 2026 04 06 22 00 00 1.785401254892e-04 1.318767317571e-11 0.000000000000e+00
     3.700000000000e+01-2.081250000000e+01 5.197359348021e-09 2.661127383140e+00
    -1.229345798492e-06 8.171961409971e-03 6.217509508133e-06 5.153735582352e+03
     1.656000000000e+05 2.607703208923e-08-7.155867120189e-01-1.210719347000e-07
     9.362126688784e-01 2.454375000000e+02-2.295750663573e+00-8.148553705684e-09
    -1.357199389945e-10 1.000000000000e+00 2.413000000000e+03 0.000000000000e+00
     2.000000000000e+00 0.000000000000e+00 4.190951585770e-09 3.700000000000e+01
     9.999000000000e+08                                                         
> EPH G31 LNAV
G31 2026 04 06 22 00 00-1.570172607899e-04 2.273736754432e-12 0.000000000000e+00
     1.300000000000e+01-2.240625000000e+01 4.848416241712e-09 1.790600621086e+00
    -1.374632120132e-06 1.082857116126e-02 6.593763828278e-06 5.153576936722e+03
     1.656000000000e+05-1.620501279831e-07-6.817063339080e-01-1.378357410431e-07
     9.547181978337e-01 2.550937500000e+02 9.426907217553e-01-8.097837307428e-09
    -2.478674675321e-10 1.000000000000e+00 2.413000000000e+03 0.000000000000e+00
     2.000000000000e+00 0.000000000000e+00-1.350417733192e-08 1.300000000000e+01
     9.999000000000e+08                                                         
> EPH J02 LNAV
